OBJECT_NAME,OBJECT_ID,EPOCH,MEAN_MOTION,ECCENTRICITY,INCLINATION,RA_OF_ASC_NODE,ARG_OF_PERICENTER,MEAN_ANOMALY,EPHEMERIS_TYPE,CLASSIFICATION_TYPE,NORAD_CAT_ID,ELEMENT_SET_NO,REV_AT_EPOCH,BSTAR,MEAN_MOTION_DOT,MEAN_MOTION_DDOT
CUTE-1 (CO-55),2003-031E,2026-07-15T11:41:55.959936,14.24351670,.00108365,98.6744,204.6909,101.9513,258.2882,0,U,27844,999,19570,.76487103E-4,.133E-5,0
CUBESAT XI-IV (CO-57),2003-031J,2026-07-15T11:45:47.733120,14.23634657,.0010557,98.6774,204.3834,118.6468,241.5773,0,U,27848,999,19540,.68039381E-4,.112E-5,0
CUBESAT XI-V,2005-043F,2026-07-15T09:29:57.557184,14.72702525,.00152544,98.3015,352.6157,114.6608,245.6189,0,U,28895,999,10590,.10993056E-3,.649E-5,0
CUTE-1.7+APD II (CO-65),2008-021C,2026-07-15T21:12:40.133376,15.09705057,.0006956,97.8294,178.9074,296.6909,63.3606,0,U,32785,999,98952,.16739E-3,.2631E-4,0
CANX-2,2008-021H,2026-07-15T11:09:44.937216,15.05807237,.00086674,97.8658,176.7990,317.1873,42.8677,0,U,32790,999,98906,.10895685E-3,.1515E-4,0
SEEDS II (CO-66),2008-021J,2026-07-15T12:36:17.926272,15.33674625,.00031052,97.7522,195.7974,155.6560,204.4829,0,U,32791,999,99163,.34560885E-3,.11174E-3,0
SWISSCUBE,2009-051B,2026-07-14T17:46:10.899552,14.62530263,.00078235,98.4008,104.1063,120.2894,239.9082,0,U,35932,999,89318,.10205829E-3,.468E-5,0
BEESAT-1,2009-051C,2026-07-15T07:29:04.477632,14.61761931,.0006132,98.3935,104.2639,129.5089,230.6654,0,U,35933,999,89329,.85522677E-4,.377E-5,0
ITUPSAT1,2009-051E,2026-07-15T04:34:09.441120,14.60478742,.00080864,98.4018,103.3025,143.1681,217.0076,0,U,35935,999,89282,.82053832E-4,.349E-5,0
TISAT 1,2010-035E,2026-07-15T18:51:51.199200,15.32747095,.0004555,98.0716,145.8980,118.9066,241.2631,0,U,36799,999,87208,.40253E-3,.12652E-3,0
STRAND-1,2013-009E,2026-07-15T17:45:38.344896,14.37179078,.0009437,98.3935,16.2735,139.6200,220.5689,0,U,39090,999,70116,.55624E-4,.123E-5,0
BRITE-AUSTRIA,2013-009F,2026-07-15T18:22:01.530336,14.36552666,.0010793,98.4008,15.4957,149.0396,211.1429,0,U,39091,999,70115,.39948E-4,.75E-6,0
NEE-01 PEGASO,2013-018B,2026-07-15T08:00:06.314688,14.93789204,.00136937,98.1256,341.4213,73.9409,286.3317,0,U,39151,999,71490,.11642538E-3,.1174E-4,0
POPACS 2,2013-055E,2026-07-15T18:06:23.348160,14.92031396,.041493,80.9916,111.4814,102.0893,262.7124,0,U,39269,999,66747,.23703E-3,.1454E-3,-.92046E-6
POPACS 3,2013-055F,2026-07-15T10:09:59.798592,14.56665007,.05487499,80.9990,198.5566,343.9708,14.4695,0,U,39270,999,64266,.19704028E-3,.8298E-4,0
ZACUBE-1 (TSHEPISOSAT),2013-066B,2026-07-15T20:49:36.712128,15.01330535,.0044051,97.8008,159.3459,153.0544,207.2981,0,U,39417,999,68503,.98374E-4,.1228E-4,0
WNISAT-1,2013-066H,2026-07-15T16:34:22.936800,14.58120743,.0163901,97.7236,343.8287,141.7598,219.5363,0,U,39423,999,67088,.11895E-3,.611E-5,0
TRITON-1,2013-066M,2026-07-15T19:02:04.018848,14.81798424,.0090639,97.8229,105.9471,140.1685,220.6228,0,U,39427,999,67832,.17087E-3,.1392E-4,0
GOMX-1,2013-066Q,2026-07-15T18:48:59.368608,14.69543634,.01282,97.6466,35.4421,346.3187,13.4557,0,U,39430,999,67411,.11195E-3,.701E-5,0
CUBEBUG-2 (LO-74),2013-066AA,2026-07-15T20:45:32.622624,14.93969667,.0055631,97.8915,145.9709,293.0759,66.4601,0,U,39440,999,68127,.19551E-3,.2083E-4,0
NEE-02 KRYSAOR,2013-066AB,2026-07-15T19:31:40.489248,14.86740707,.0065349,97.8897,135.8273,337.2484,22.5838,0,U,39441,999,68045,.13087E-3,.115E-4,0
FUNCUBE-1 (AO-73),2013-066AE,2026-07-15T21:20:20.419008,15.09822727,.003799,97.8290,168.9436,105.4335,255.1095,0,U,39444,999,68399,.22787E-3,.3677E-4,0
UWE-3,2013-066AG,2026-07-15T19:42:56.271168,14.97201399,.0047549,97.8715,153.0945,222.4036,137.3508,0,U,39446,999,68186,.17026E-3,.1951E-4,0
BRITE-CA1 (TORONTO),2014-033L,2026-07-15T18:40:23.164032,14.72723306,.0078477,97.9773,325.1846,184.3909,175.6620,0,U,40020,999,64642,.87115E-4,.53E-5,0
DUCHIFAT-1,2014-033M,2026-07-15T02:33:22.918464,15.70998071,.00027596,98.0418,259.3300,247.0602,113.0368,0,U,40021,999,66012,.75655471E-3,.95423E-3,0
NANOSATC-BR1,2014-033Q,2026-07-15T00:45:29.023488,15.32325644,.00053019,98.0712,230.9033,95.9115,264.2729,0,U,40024,999,65824,.33334798E-3,.10322E-3,0
QB50P1,2014-033R,2026-07-15T13:14:24.384768,15.18670090,.0010355,98.0962,209.6951,123.5579,236.6643,0,U,40025,999,65733,.21798E-3,.4446E-4,0
QB50P2,2014-033Y,2026-07-15T05:31:30.969120,15.15506307,.0009323,98.0760,194.8648,83.4516,276.7776,0,U,40032,999,65691,.19604245E-3,.3641E-4,0
PERSEUS-M2,2014-033AD,2026-07-15T19:59:12.219648,14.95593484,.0010873,97.9982,147.9604,196.7835,163.3027,0,U,40037,999,65506,.99683E-4,.1046E-4,0
PERSEUS-M1,2014-033AF,2026-07-15T09:38:56.989536,14.95716338,.00109196,97.9654,141.0000,195.4743,164.6145,0,U,40039,999,65485,.10973457E-3,.1162E-4,0
